[{"OBJECT_NAME":"STARLINK-5996","OBJECT_ID":"2023-094K","EPOCH":"2026-03-08T23:47:53.593728","MEAN_MOTION":15.02537614,"ECCENTRICITY":0.00013634,"INCLINATION":43.0047,"RA_OF_ASC_NODE":34.2324,"ARG_OF_PERICENTER":267.6245,"MEAN_ANOMALY":92.4441,"EPHEMERIS_TYPE":0,"CLASSIFICATION_TYPE":"U","NORAD_CAT_ID":57227,"ELEMENT_SET_NO":999,"REV_AT_EPOCH":14701,"BSTAR":-1.178135e-5,"MEAN_MOTION_DOT":-3.63e-6,"MEAN_MOTION_DDOT":0},{"OBJECT_NAME":"CZ-4B DEB","OBJECT_ID":"2020-067G","EPOCH":"2026-03-09T15:23:17.086272","MEAN_MOTION":14.97507509,"ECCENTRICITY":0.0035481,"INCLINATION":97.6356,"RA_OF_ASC_NODE":124.8214,"ARG_OF_PERICENTER":11.4219,"MEAN_ANOMALY":348.7801,"EPHEMERIS_TYPE":0,"CLASSIFICATION_TYPE":"U","NORAD_CAT_ID":46484,"ELEMENT_SET_NO":999,"REV_AT_EPOCH":29505,"BSTAR":0.00058118,"MEAN_MOTION_DOT":6.807e-5,"MEAN_MOTION_DDOT":0}]
